{
  "type": "FeatureCollection",
  "features": [
    {
      "type": "Feature",
      "properties": {
        "norad_id": 30760,
        "name": "FENGYUN 1C DEB",
        "group": "fengyun-1c-debris",
        "lat": 2.4233601747187308,
        "lon": 177.40098883524857,
        "alt_km": 900.8881643195464,
        "timestamp": "2025-12-26T17:24:54.997952+00:00",
        "meta_object_name": "FENGYUN 1C DEB",
        "meta_object_id": "1999-025ATW",
        "meta_epoch": "2025-12-26T06:18:56.109888",
        "meta_mean_motion": 14.05192474,
        "meta_eccentricity": 0.00522491,
        "meta_inclination": 98.823,
        "meta_ra_of_asc_node": 356.5745,
        "meta_arg_of_pericenter": 305.2829,
        "meta_mean_anomaly": 54.3458,
        "meta_ephemeris_type": 0,
        "meta_classification_type": "U",
        "meta_norad_cat_id": 30760,
        "meta_element_set_no": 999,
        "meta_rev_at_epoch": 96412,
        "meta_bstar": 0.00023229095,
        "meta_mean_motion_dot": 3.36e-06,
        "meta_mean_motion_ddot": 0,
        "tle_line1": "1 30760U 99025ATW 25360.26314942  .00000336  00000+0  23229-3 0  9990",
        "tle_line2": "2 30760  98.8230 356.5745 0052249 305.2829  54.3458 14.05192474964122"
      },
      "geometry": {
        "type": "Point",
        "coordinates": [
          177.40098883524857,
          2.4233601747187308
        ]
      }
    },
    {
      "type": "Feature",
      "properties": {
        "norad_id": 30761,
        "name": "FENGYUN 1C DEB",
        "group": "fengyun-1c-debris",
        "lat": 27.95875672972383,
        "lon": -77.43767443806898,
        "alt_km": 796.5980629400301,
        "timestamp": "2025-12-26T17:24:54.997962+00:00",
        "meta_object_name": "FENGYUN 1C DEB",
        "meta_object_id": "1999-025ATX",
        "meta_epoch": "2025-12-25T01:08:41.725824",
        "meta_mean_motion": 14.35844041,
        "meta_eccentricity": 0.00836992,
        "meta_inclination": 98.9666,
        "meta_ra_of_asc_node": 285.6254,
        "meta_arg_of_pericenter": 277.5738,
        "meta_mean_anomaly": 81.5945,
        "meta_ephemeris_type": 0,
        "meta_classification_type": "U",
        "meta_norad_cat_id": 30761,
        "meta_element_set_no": 999,
        "meta_rev_at_epoch": 97918,
        "meta_bstar": 0.0010317297,
        "meta_mean_motion_dot": 3.062e-05,
        "meta_mean_motion_ddot": 0,
        "tle_line1": "1 30761U 99025ATX 25359.04770516  .00003062  00000+0  10317-2 0  9990",
        "tle_line2": "2 30761  98.9666 285.6254 0083699 277.5738  81.5945 14.35844041979189"
      },
      "geometry": {
        "type": "Point",
        "coordinates": [
          -77.43767443806898,
          27.95875672972383
        ]
      }
    },
    {
      "type": "Feature",
      "properties": {
        "norad_id": 30762,
        "name": "FENGYUN 1C DEB",
        "group": "fengyun-1c-debris",
        "lat": 73.84787692415735,
        "lon": -156.2828940968778,
        "alt_km": 1020.4306531736765,
        "timestamp": "2025-12-26T17:24:54.997972+00:00",
        "meta_object_name": "FENGYUN 1C DEB",
        "meta_object_id": "1999-025ATY",
        "meta_epoch": "2025-12-24T17:41:52.326816",
        "meta_mean_motion": 13.98113979,
        "meta_eccentricity": 0.01973022,
        "meta_inclination": 98.8763,
        "meta_ra_of_asc_node": 349.1388,
        "meta_arg_of_pericenter": 261.87,
        "meta_mean_anomaly": 281.0282,
        "meta_ephemeris_type": 0,
        "meta_classification_type": "U",
        "meta_norad_cat_id": 30762,
        "meta_element_set_no": 999,
        "meta_rev_at_epoch": 95805,
        "meta_bstar": 0.00050242304,
        "meta_mean_motion_dot": 7.99e-06,
        "meta_mean_motion_ddot": 0,
        "tle_line1": "1 30762U 99025ATY 25358.73741119  .00000799  00000+0  50242-3 0  9999",
        "tle_line2": "2 30762  98.8763 349.1388 0197302 261.8700 281.0282 13.98113979958054"
      },
      "geometry": {
        "type": "Point",
        "coordinates": [
          -156.2828940968778,
          73.84787692415735
        ]
      }
    },
    {
      "type": "Feature",
      "properties": {
        "norad_id": 30763,
        "name": "FENGYUN 1C DEB",
        "group": "fengyun-1c-debris",
        "lat": -74.7120810932871,
        "lon": 108.07018510455508,
        "alt_km": 684.9279023476711,
        "timestamp": "2025-12-26T17:24:54.997982+00:00",
        "meta_object_name": "FENGYUN 1C DEB",
        "meta_object_id": "1999-025ATZ",
        "meta_epoch": "2025-12-26T03:16:18.962112",
        "meta_mean_motion": 14.61615798,
        "meta_eccentricity": 0.00246137,
        "meta_inclination": 98.8917,
        "meta_ra_of_asc_node": 72.4963,
        "meta_arg_of_pericenter": 230.3041,
        "meta_mean_anomaly": 192.9407,
        "meta_ephemeris_type": 0,
        "meta_classification_type": "U",
        "meta_norad_cat_id": 30763,
        "meta_element_set_no": 999,
        "meta_rev_at_epoch": 97340,
        "meta_bstar": 0.0038926804,
        "meta_mean_motion_dot": 0.00019434,
        "meta_mean_motion_ddot": 0,
        "tle_line1": "1 30763U 99025ATZ 25360.13633058  .00019434  00000+0  38927-2 0  9990",
        "tle_line2": "2 30763  98.8917  72.4963 0024613 230.3041 192.9407 14.61615798973406"
      },
      "geometry": {
        "type": "Point",
        "coordinates": [
          108.07018510455508,
          -74.7120810932871
        ]
      }
    },
    {
      "type": "Feature",
      "properties": {
        "norad_id": 30764,
        "name": "FENGYUN 1C DEB",
        "group": "fengyun-1c-debris",
        "lat": -22.268956731218424,
        "lon": -22.472475363531146,
        "alt_km": 524.2973157407814,
        "timestamp": "2025-12-26T17:24:54.997992+00:00",
        "meta_object_name": "FENGYUN 1C DEB",
        "meta_object_id": "1999-025AUA",
        "meta_epoch": "2025-12-26T04:57:25.598592",
        "meta_mean_motion": 15.29903349,
        "meta_eccentricity": 0.00764974,
        "meta_inclination": 98.7803,
        "meta_ra_of_asc_node": 333.2859,
        "meta_arg_of_pericenter": 124.4452,
        "meta_mean_anomaly": 236.4045,
        "meta_ephemeris_type": 0,
        "meta_classification_type": "U",
        "meta_norad_cat_id": 30764,
        "meta_element_set_no": 999,
        "meta_rev_at_epoch": 1428,
        "meta_bstar": 0.0010331916,
        "meta_mean_motion_dot": 0.00032723,
        "meta_mean_motion_ddot": 0,
        "tle_line1": "1 30764U 99025AUA 25360.20654628  .00032723  00000+0  10332-2 0  9991",
        "tle_line2": "2 30764  98.7803 333.2859 0076497 124.4452 236.4045 15.29903349 14289"
      },
      "geometry": {
        "type": "Point",
        "coordinates": [
          -22.472475363531146,
          -22.268956731218424
        ]
      }
    },
    {
      "type": "Feature",
      "properties": {
        "norad_id": 30765,
        "name": "FENGYUN 1C DEB",
        "group": "fengyun-1c-debris",
        "lat": 52.027489592665404,
        "lon": 35.07541975575982,
        "alt_km": 860.2763880158363,
        "timestamp": "2025-12-26T17:24:54.998002+00:00",
        "meta_object_name": "FENGYUN 1C DEB",
        "meta_object_id": "1999-025AUB",
        "meta_epoch": "2025-12-25T23:03:57.153888",
        "meta_mean_motion": 14.14750972,
        "meta_eccentricity": 0.0068772,
        "meta_inclination": 98.7869,
        "meta_ra_of_asc_node": 45.7527,
        "meta_arg_of_pericenter": 171.8053,
        "meta_mean_anomaly": 310.0751,
        "meta_ephemeris_type": 0,
        "meta_classification_type": "U",
        "meta_norad_cat_id": 30765,
        "meta_element_set_no": 999,
        "meta_rev_at_epoch": 97009,
        "meta_bstar": 0.0007452,
        "meta_mean_motion_dot": 1.425e-05,
        "meta_mean_motion_ddot": 0,
        "tle_line1": "1 30765U 99025AUB 25359.96107817  .00001425  00000+0  74520-3 0  9991",
        "tle_line2": "2 30765  98.7869  45.7527 0068772 171.8053 310.0751 14.14750972970097"
      },
      "geometry": {
        "type": "Point",
        "coordinates": [
          35.07541975575982,
          52.027489592665404
        ]
      }
    },
    {
      "type": "Feature",
      "properties": {
        "norad_id": 30766,
        "name": "FENGYUN 1C DEB",
        "group": "fengyun-1c-debris",
        "lat": 29.415694981434722,
        "lon": -4.33396409627459,
        "alt_km": 799.1951924360828,
        "timestamp": "2025-12-26T17:24:54.998011+00:00",
        "meta_object_name": "FENGYUN 1C DEB",
        "meta_object_id": "1999-025AUC",
        "meta_epoch": "2025-12-23T22:58:26.298048",
        "meta_mean_motion": 14.09556111,
        "meta_eccentricity": 0.0083444,
        "meta_inclination": 98.6731,
        "meta_ra_of_asc_node": 357.9362,
        "meta_arg_of_pericenter": 42.9494,
        "meta_mean_anomaly": 346.9265,
        "meta_ephemeris_type": 0,
        "meta_classification_type": "U",
        "meta_norad_cat_id": 30766,
        "meta_element_set_no": 999,
        "meta_rev_at_epoch": 62955,
        "meta_bstar": 0.00066973,
        "meta_mean_motion_dot": 1.168e-05,
        "meta_mean_motion_ddot": 0,
        "tle_line1": "1 30766U 99025AUC 25357.95724882  .00001168  00000+0  66973-3 0  9993",
        "tle_line2": "2 30766  98.6731 357.9362 0083444  42.9494 346.9265 14.09556111629553"
      },
      "geometry": {
        "type": "Point",
        "coordinates": [
          -4.33396409627459,
          29.415694981434722
        ]
      }
    }
  ]
}